NORAD_CAT_ID,OBJECT_NAME,OBJECT_TYPE,EPOCH,MEAN_MOTION,ECCENTRICITY,INCLINATION,RA_OF_ASC_NODE,ARG_OF_PERICENTER,MEAN_ANOMALY,BSTAR,MEAN_MOTION_DOT,MEAN_MOTION_DDOT,TLE_LINE0,TLE_LINE1,TLE_LINE2,SEMIMAJOR_AXIS,PERIOD,APOGEE,PERIGEE,DECAYED
53547.0,STARLINK-4474,PAYLOAD,2022-10-14 14:00:01,15.36504821,0.0001278,53.2175,241.3758,94.324,156.6264,-0.032335,-0.01072562,0.0,0 STARLINK-4474,1 53547U 22101W   22287.58334491 -.01072562  00000-0 -32335-1 0  9990,2 53547  53.2175 241.3758 0001278  94.3240 156.6264 15.36504821  1308,6834.590999999999,93.719,457.33,455.583,0.0
53547.0,STARLINK-4474,PAYLOAD,2022-10-14 18:00:00,15.36122068,0.0001165999999999,53.2174,240.594,86.9637,6.2875,-0.03258,-0.01067765,0.0,0 STARLINK-4474,1 53547U 22101W   22287.75001157 -.01067765  00000-0 -32580-1 0  9990,2 53547  53.2174 240.5940 0001166  86.9637   6.2875 15.36122068  1301,6835.727,93.743,458.389,456.795,0.0
53547.0,STARLINK-4474,PAYLOAD,2022-10-15 14:00:01,15.34224512,0.0001118,53.2175,236.6956,75.9985,305.3264,-0.034689,-0.01069428,0.0,0 STARLINK-4474,1 53547U 22101W   22288.58334491 -.01069428  00000-0 -34689-1 0  9992,2 53547  53.2175 236.6956 0001118  75.9985 305.3264 15.34224512  1306,6841.361999999999,93.858,463.992,462.462,0.0
53547.0,STARLINK-4474,PAYLOAD,2022-10-15 22:00:01,15.33464151,0.0001227,53.2176,235.1389,69.745,353.2766,-0.03546,-0.01067231,0.0,0 STARLINK-4474,1 53547U 22101W   22288.91668981 -.01067231  00000-0 -35460-1 0  9991,2 53547  53.2176 235.1389 0001227  69.7450 353.2766 15.33464151  1303,6843.623000000001,93.905,466.328,464.648,0.0
53547.0,STARLINK-4474,PAYLOAD,2022-10-16 14:00:01,15.31944755,0.0001318,53.2175,232.0316,74.6964,68.7887,-0.03718,-0.01066536,0.0,0 STARLINK-4474,1 53547U 22101W   22289.58334491 -.01066536  00000-0 -37180-1 0  9999,2 53547  53.2175 232.0316 0001318  74.6964  68.7887 15.31944755  1307,6848.147,93.998,470.915,469.11,0.0
53547.0,STARLINK-4474,PAYLOAD,2022-10-16 22:00:00,15.3118466,0.0001375999999999,53.2178,230.4807,78.8079,103.5719,-0.03803,-0.01065292,0.0,0 STARLINK-4474,1 53547U 22101W   22289.91667824 -.01065292  00000-0 -38030-1 0  9998,2 53547  53.2178 230.4807 0001376  78.8079 103.5719 15.31184660  1307,6850.4140000000025,94.045,473.221,471.336,0.0
53547.0,STARLINK-4474,PAYLOAD,2022-10-17 14:00:01,15.29666923,0.000135,53.2176,227.3837,66.9055,190.5252,-0.039954,-0.01067242,0.0,0 STARLINK-4474,1 53547U 22101W   22290.58334491 -.01067242  00000-0 -39954-1 0  9997,2 53547  53.2176 227.3837 0001350  66.9055 190.5252 15.29666923  1309,6854.944,94.138,477.735,475.884,0.0
53547.0,STARLINK-4474,PAYLOAD,2022-10-17 22:00:00,15.28906745,0.0001256,53.2177,225.8383,79.8459,213.7414,-0.040841,-0.01065661,0.0,0 STARLINK-4474,1 53547U 22101W   22290.91667824 -.01065661  00000-0 -40841-1 0  9993,2 53547  53.2177 225.8383 0001256  79.8459 213.7414 15.28906745  1301,6857.215999999999,94.185,479.942,478.22,0.0
53547.0,STARLINK-4474,PAYLOAD,2022-10-18 14:00:01,15.27387393,0.0001136,53.2175,222.752,75.8332,287.3299,-0.042802,-0.01065788,0.0,0 STARLINK-4474,1 53547U 22101W   22291.58334491 -.01065788  00000-0 -42802-1 0  9997,2 53547  53.2175 222.7520 0001136  75.8332 287.3299 15.27387393  9386,6861.763000000001,94.279,484.407,482.848,0.0
53547.0,STARLINK-4474,PAYLOAD,2022-10-18 22:00:00,15.26629053,0.0001186,53.2177,221.2121,75.1364,321.4445,-0.0438649999999999,-0.0106713,0.0,0 STARLINK-4474,1 53547U 22101W   22291.91667824 -.01067130  00000-0 -43865-1 0  9996,2 53547  53.2177 221.2121 0001186  75.1364 321.4445 15.26629053  1300,6864.035,94.325,486.714,485.086,0.0
53547.0,STARLINK-4474,PAYLOAD,2022-10-19 14:00:01,15.2510748,0.000126,53.2175,218.1364,73.131,27.5505,-0.045749,-0.01063119,0.0,0 STARLINK-4474,1 53547U 22101W   22292.58334491 -.01063119  00000-0 -45749-1 0  9997,2 53547  53.2175 218.1364 0001260  73.1310  27.5505 15.25107480  1309,6868.6,94.42,491.33,489.599,0.0
53547.0,STARLINK-4474,PAYLOAD,2022-10-19 22:00:00,15.24349428,0.0001423,53.2176,216.6019,64.3626,66.9987,-0.046915,-0.01065418,0.0,0 STARLINK-4474,1 53547U 22101W   22292.91667824 -.01065418  00000-0 -46915-1 0  9993,2 53547  53.2176 216.6019 0001423  64.3626  66.9987 15.24349428  1303,6870.877,94.467,493.719,491.764,0.0
53547.0,STARLINK-4474,PAYLOAD,2022-10-20 14:00:01,15.22828412,0.0001353,53.2174,213.5367,85.1659,104.8196,-0.048906,-0.01061531,0.0,0 STARLINK-4474,1 53547U 22101W   22293.58334491 -.01061531  00000-0 -48906-1 0  9992,2 53547  53.2174 213.5367 0001353  85.1659 104.8196 15.22828412  9688,6875.451,94.561,498.246,496.386,0.0
53547.0,STARLINK-4474,PAYLOAD,2022-10-20 22:00:00,15.22069597,0.0001388,53.2176,212.0078,85.8764,132.0511,-0.0500829999999999,-0.01062725,0.0,0 STARLINK-4474,1 53547U 22101W   22293.91667824 -.01062725  00000-0 -50083-1 0  9993,2 53547  53.2176 212.0078 0001388  85.8764 132.0511 15.22069597  1301,6877.736,94.608,500.556,498.646,0.0
53547.0,STARLINK-4474,PAYLOAD,2022-10-21 14:00:01,15.20549179,0.0001281,53.2174,208.9531,83.8401,187.2356,-0.052242,-0.01060072,0.0,0 STARLINK-4474,1 53547U 22101W   22294.58334491 -.01060072  00000-0 -52242-1 0  9990,2 53547  53.2174 208.9531 0001281  83.8401 187.2356 15.20549179  1301,6882.32,94.703,505.067,503.30300000000005,0.0
53547.0,STARLINK-4474,PAYLOAD,2022-10-21 22:00:00,15.19808781,0.0001295,53.2166,207.4305,85.9556,210.3145,-0.054838,-0.01100424,0.0,0 STARLINK-4474,1 53547U 22101W   22294.91667824 -.01100424  00000-0 -54838-1 0  9995,2 53547  53.2166 207.4305 0001295  85.9556 210.3145 15.19808781  1303,6884.555,94.749,507.312,505.528,0.0
53547.0,STARLINK-4474,PAYLOAD,2022-10-22 14:00:01,15.18269463,0.0001167,53.2173,204.3856,82.3699,261.5823,-0.055738,-0.01071638,0.0,0 STARLINK-4474,1 53547U 22101W   22295.58334491 -.01071638  00000-0 -55738-1 0  9994,2 53547  53.2173 204.3856 0001167  82.3699 261.5823 15.18269463  1303,6889.208000000001,94.845,511.877,510.269,0.0
53547.0,STARLINK-4474,PAYLOAD,2022-10-22 22:00:00,15.17519567,0.0001242,53.2167,202.8682,84.2997,282.1137,-0.057761,-0.01085612,0.0,0 STARLINK-4474,1 53547U 22101W   22295.91667824 -.01085612  00000-0 -57761-1 0  9995,2 53547  53.2167 202.8682 0001242  84.2997 282.1137 15.17519567  1301,6891.477,94.892,514.198,512.486,0.0
53547.0,STARLINK-4474,PAYLOAD,2022-10-23 14:00:01,15.15991238,0.0001185,53.2173,199.8337,79.6308,328.9834,-0.059548,-0.01072118,0.0,0 STARLINK-4474,1 53547U 22101W   22296.58334491 -.01072118  00000-0 -59548-1 0  9992,2 53547  53.2173 199.8337 0001185  79.6308 328.9834 15.15991238 10142,6896.108,94.987,518.79,517.156,0.0
53547.0,STARLINK-4474,PAYLOAD,2022-10-23 22:00:00,15.15243994,0.0001277,53.2167,198.3221,92.4509,335.8849,-0.06191,-0.01089724,0.0,0 STARLINK-4474,1 53547U 22101W   22296.91667824 -.01089724  00000-0 -61910-1 0  9995,2 53547  53.2167 198.3221 0001277  92.4509 335.8849 15.15243994  1309,6898.375,95.034,521.121,519.359,0.0
53547.0,STARLINK-4474,PAYLOAD,2022-10-24 14:00:01,15.13713744,0.0001286,53.2174,195.298,82.7143,22.3476,-0.063637,-0.01073748,0.0,0 STARLINK-4474,1 53547U 22101W   22297.58334491 -.01073748  00000-0 -63637-1 0  9997,2 53547  53.2174 195.2980 0001286  82.7143  22.3476 15.13713744 10296,6903.023,95.13,525.776,524.001,0.0
53547.0,STARLINK-4474,PAYLOAD,2022-10-24 22:00:00,15.12965547,0.0001343,53.2165,193.792,88.4944,33.5514,-0.066057,-0.01090017,0.0,0 STARLINK-4474,1 53547U 22101W   22297.91667824 -.01090017  00000-0 -66057-1 0  9990,2 53547  53.2165 193.7920 0001343  88.4944  33.5514 15.12965547  1307,6905.299,95.177,528.091,526.237,0.0
53547.0,STARLINK-4474,PAYLOAD,2022-10-25 14:00:01,15.11436094,0.0001385,53.2173,190.7781,82.11,71.1856,-0.067942,-0.01075227,0.0,0 STARLINK-4474,1 53547U 22101W   22298.58334491 -.01075227  00000-0 -67942-1 0  9995,2 53547  53.2173 190.7781 0001385  82.1100  71.1856 15.11436094 10440,6909.956999999999,95.274,532.779,530.864,0.0
53547.0,STARLINK-4474,PAYLOAD,2022-10-25 22:00:01,15.10685175,0.0001422,53.2165,189.2772,97.1037,70.502,-0.070191,-0.01086894,0.0,0 STARLINK-4474,1 53547U 22101W   22298.91668981 -.01086894  00000-0 -70191-1 0  9998,2 53547  53.2165 189.2772 0001422  97.1037  70.5020 15.10685175  1307,6912.246,95.321,535.094,533.128,0.0
53547.0,STARLINK-4474,PAYLOAD,2022-10-26 14:00:01,15.09092853,0.0001186,53.2173,186.2754,94.6639,98.6585,-0.023359,-0.00356505,0.0,0 STARLINK-4474,1 53547U 22101W   22299.58334491 -.00356505  00000-0 -23359-1 0  9990,2 53547  53.2173 186.2754 0001186  94.6639  98.6585 15.09092853 10591,6917.108,95.422,539.793,538.1519999999998,0.0
53547.0,STARLINK-4474,PAYLOAD,2022-10-26 22:00:00,15.08835402,0.0001365999999999,53.2174,184.7801,81.3354,123.7256,0.00013317,1.832e-05,0.0,0 STARLINK-4474,1 53547U 22101W   22299.91667824  .00001832  00000-0  13317-3 0  9999,2 53547  53.2174 184.7801 0001366  81.3354 123.7256 15.08835402  1303,6917.894,95.438,540.7040000000002,538.814,0.0
53547.0,STARLINK-4474,PAYLOAD,2022-10-27 06:00:00,15.08899434,0.0001743,53.2124,183.291,82.3913,134.2748,-0.0025528,-0.00040753,0.0,0 STARLINK-4474,1 53547U 22101W   22300.25001157 -.00040753  00000-0 -25528-2 0  9993,2 53547  53.2124 183.2910 0001743  82.3913 134.2748 15.08899434 10694,6917.699000000001,95.434,540.769,538.3580000000002,0.0
53547.0,STARLINK-4474,PAYLOAD,2022-10-27 14:00:01,15.08858804,0.0001595999999999,53.2129,181.7927,89.9686,138.4035,-0.0022621,-0.00036128,0.0,0 STARLINK-4474,1 53547U 22101W   22300.58335648 -.00036128  00000-0 -22621-2 0  9996,2 53547  53.2129 181.7927 0001596  89.9686 138.4035 15.08858804  1305,6917.823,95.436,540.7919999999998,538.5840000000002,0.0
53547.0,STARLINK-4474,PAYLOAD,2022-10-27 22:00:00,15.08813909,0.0001460999999999,53.2129,180.2979,82.198,157.7239,-0.0041831,-0.00066203,0.0,0 STARLINK-4474,1 53547U 22101W   22300.91667824 -.00066203  00000-0 -41831-2 0  9998,2 53547  53.2129 180.2979 0001461  82.1980 157.7239 15.08813909  1306,6917.96,95.439,540.836,538.814,0.0
